ONEWEB-0116             
1 48046U 21025E   24237.83009305  .00000288  00000+0  75386-3 0  9997
2 48046  87.8872  91.8207 0001580  78.5635 281.5671 13.13469848166830
ONEWEB-0150             
1 48047U 21025F   24237.88087801  .00000212  00000+0  54526-3 0  9990
2 48047  87.8864  91.8253 0001844  82.5893 277.5446 13.13471042166730
ONEWEB-0107             
1 48048U 21025G   24237.88246261  .00000222  00000+0  57197-3 0  9996
2 48048  87.8863  91.8229 0002011  84.5962 275.5396 13.13471766166712
ONEWEB-0101             
1 48049U 21025H   24237.84596093 -.00000115  00000+0 -35027-3 0  9995
2 48049  87.8872  91.8507 0001699  85.7603 274.3721 13.13469900166680
ONEWEB-0113             
1 48050U 21025J   24237.89991895  .00000292  00000+0  76349-3 0  9997
2 48050  87.8870  91.8211 0001584  79.9910 280.1397 13.13470396166776
ONEWEB-0112             
1 48051U 21025K   24237.88721703  .00000082  00000+0  19009-3 0  9993
2 48051  87.8863  91.8195 0001757  80.0936 280.0392 13.13470640166780
ONEWEB-0156             
1 48052U 21025L   24237.89674486  .00000304  00000+0  79647-3 0  9991
2 48052  87.8868  91.8175 0001729  81.6258 278.5067 13.13469405166763
ONEWEB-0161             
1 48053U 21025M   24237.86976150 -.00000112  00000+0 -34141-3 0  9991
2 48053  87.8870  91.8318 0001795  87.6052 272.5282 13.13472136166697
